NORAD_CAT_ID,OBJECT_NAME,OBJECT_TYPE,EPOCH,MEAN_MOTION,ECCENTRICITY,INCLINATION,RA_OF_ASC_NODE,ARG_OF_PERICENTER,MEAN_ANOMALY,BSTAR,MEAN_MOTION_DOT,MEAN_MOTION_DDOT,TLE_LINE0,TLE_LINE1,TLE_LINE2,SEMIMAJOR_AXIS,PERIOD,APOGEE,PERIGEE,DECAYED
53016.0,STARLINK-4283,PAYLOAD,2022-08-27 20:00:01,15.73218798,0.0001865999999999,53.2168,125.7773,33.4477,270.3932,-0.0002244,-0.00032021,0.0,0 STARLINK-4283,1 53016U 22076AG  22239.83334491 -.00032021  00000-0 -22440-3 0  9990,2 53016  53.2168 125.7773 0001866  33.4477 270.3932 15.73218798  8570,6727.842,91.532,350.962,348.451,0.0
53016.0,STARLINK-4283,PAYLOAD,2022-08-27 22:00:00,15.73199753,0.000192,53.2167,125.3656,31.0629,25.0188,2.8363e-06,-2.23e-06,0.0,0 STARLINK-4283,1 53016U 22076AG  22239.91667824 -.00000223  00000-0  28363-5 0  9998,2 53016  53.2167 125.3656 0001920  31.0629  25.0188 15.73199753  1300,6727.896,91.533,351.05300000000005,348.469,0.0
53016.0,STARLINK-4283,PAYLOAD,2022-08-28 04:00:00,15.73200965,0.0002011,53.2166,124.1291,25.8792,6.9095,0.00046238,0.00064779,0.0,0 STARLINK-4283,1 53016U 22076AG  22240.16667824  .00064779  00000-0  46238-3 0  9991,2 53016  53.2166 124.1291 0002011  25.8792   6.9095 15.73200965  8620,6727.892,91.533,351.11,348.404,0.0
53016.0,STARLINK-4283,PAYLOAD,2022-08-28 12:00:00,15.73221481,0.0001699,53.2169,122.4775,25.1189,96.6472,-1.1734e-05,-2.269e-05,0.0,0 STARLINK-4283,1 53016U 22076AG  22240.50001157 -.00002269  00000-0 -11734-4 0  9992,2 53016  53.2169 122.4775 0001699  25.1189  96.6472 15.73221481  8671,6727.834,91.532,350.842,348.556,0.0
53016.0,STARLINK-4283,PAYLOAD,2022-08-28 14:00:01,15.73191545,0.0001712,53.2168,122.0647,26.8322,207.1828,0.00042879,0.00059968,0.0,0 STARLINK-4283,1 53016U 22076AG  22240.58334491  .00059968  00000-0  42879-3 0  9999,2 53016  53.2168 122.0647 0001712  26.8322 207.1828 15.73191545  1301,6727.919,91.534,350.936,348.63199999999995,0.0
53016.0,STARLINK-4283,PAYLOAD,2022-08-28 22:00:00,15.73248148,0.0001943,53.2165,120.417,26.9672,295.9588,-0.00071854,-0.00100482,0.0,0 STARLINK-4283,1 53016U 22076AG  22240.91667824 -.00100482  00000-0 -71854-3 0  9990,2 53016  53.2165 120.4170 0001943  26.9672 295.9588 15.73248148  1306,6727.7580000000025,91.53,350.93,348.316,0.0
53016.0,STARLINK-4283,PAYLOAD,2022-08-29 04:00:00,15.73154199,0.0002056,53.2161,119.1802,26.2572,273.3856,0.0003361,0.00046721,0.0,0 STARLINK-4283,1 53016U 22076AG  22241.16667824  .00046721  00000-0  33610-3 0  9999,2 53016  53.2161 119.1802 0002056  26.2572 273.3856 15.73154199  8786,6728.026,91.536,351.274,348.50699999999995,0.0
53016.0,STARLINK-4283,PAYLOAD,2022-08-29 12:00:00,15.73160695,0.0001659,53.216,117.5287,28.1546,0.3969,-0.00011119,-0.00016169,0.0,0 STARLINK-4283,1 53016U 22076AG  22241.50001157 -.00016169  00000-0 -11119-3 0  9993,2 53016  53.2160 117.5287 0001659  28.1546   0.3969 15.73160695  8831,6728.007,91.535,350.98800000000006,348.756,0.0
53016.0,STARLINK-4283,PAYLOAD,2022-08-29 14:00:01,15.7313717,0.0001636,53.216,117.1162,28.2354,112.5431,0.00020868,0.00028689,0.0,0 STARLINK-4283,1 53016U 22076AG  22241.58334491  .00028689  00000-0  20868-3 0  9990,2 53016  53.2160 117.1162 0001636  28.2354 112.5431 15.73137170  1309,6728.074000000001,91.537,351.04,348.839,0.0
53016.0,STARLINK-4283,PAYLOAD,2022-08-29 22:00:00,15.73151197,0.0001843,53.2161,115.4687,24.2292,205.4045,0.00012908,0.00017496,0.0,0 STARLINK-4283,1 53016U 22076AG  22241.91667824  .00017496  00000-0  12908-3 0  9996,2 53016  53.2161 115.4687 0001843  24.2292 205.4045 15.73151197  1308,6728.034000000002,91.536,351.139,348.659,0.0
53016.0,STARLINK-4283,PAYLOAD,2022-08-30 04:00:00,15.73161245,0.0001893,53.216,114.2319,21.2025,185.0886,0.00040081,0.00055914,0.0,0 STARLINK-4283,1 53016U 22076AG  22242.16667824  .00055914  00000-0  40081-3 0  9994,2 53016  53.2160 114.2319 0001893  21.2025 185.0886 15.73161245  8939,6728.005999999999,91.535,351.144,348.597,0.0
53016.0,STARLINK-4283,PAYLOAD,2022-08-30 14:00:01,15.7318173,0.0001721999999999,53.2164,112.1676,27.7777,19.6461,0.00049236,0.00068996,0.0,0 STARLINK-4283,1 53016U 22076AG  22242.58334491  .00068996  00000-0  49236-3 0  9996,2 53016  53.2164 112.1676 0001722  27.7777  19.6461 15.73181730  1308,6727.946999999999,91.534,350.971,348.654,0.0
53016.0,STARLINK-4283,PAYLOAD,2022-08-30 22:00:00,15.73259413,0.000202,53.2161,110.5199,28.1227,108.2383,-0.00056465,-0.00079331,0.0,0 STARLINK-4283,1 53016U 22076AG  22242.91667824 -.00079331  00000-0 -56465-3 0  9991,2 53016  53.2161 110.5199 0002020  28.1227 108.2383 15.73259413  9056,6727.726,91.53,350.95,348.232,0.0
53016.0,STARLINK-4283,PAYLOAD,2022-08-31 12:00:00,15.73205943,0.000187,53.2158,107.6313,37.0324,164.9956,4.3068e-05,5.429e-05,0.0,0 STARLINK-4283,1 53016U 22076AG  22243.50001157  .00005429  00000-0  43068-4 0  9999,2 53016  53.2158 107.6313 0001870  37.0324 164.9956 15.73205943  9140,6727.878000000002,91.533,351.001,348.485,0.0
53016.0,STARLINK-4283,PAYLOAD,2022-08-31 14:00:01,15.73224039,0.0001895,53.216,107.2188,39.0522,275.2053,-0.00025615,-0.00036454,0.0,0 STARLINK-4283,1 53016U 22076AG  22243.58334491 -.00036454  00000-0 -25615-3 0  9998,2 53016  53.2160 107.2188 0001895  39.0522 275.2053 15.73224039  1309,6727.8269999999975,91.532,350.967,348.417,0.0
53016.0,STARLINK-4283,PAYLOAD,2022-08-31 22:00:00,15.73175623,0.0002177,53.2161,105.5714,38.734,4.4728,0.00012794,0.00017354,0.0,0 STARLINK-4283,1 53016U 22076AG  22243.91667824  .00017354  00000-0  12794-3 0  9994,2 53016  53.2161 105.5714 0002177  38.7340   4.4728 15.73175623  1309,6727.965,91.535,351.2940000000001,348.365,0.0
53016.0,STARLINK-4283,PAYLOAD,2022-09-01 04:00:01,15.73193111,0.00022,53.216,104.3341,35.4899,344.4569,0.00022059,0.00030442,0.0,0 STARLINK-4283,1 53016U 22076AG  22244.16668981  .00030442  00000-0  22059-3 0  9995,2 53016  53.2160 104.3341 0002200  35.4899 344.4569 15.73193111  9255,6727.915,91.534,351.26,348.3,0.0
53016.0,STARLINK-4283,PAYLOAD,2022-09-01 14:00:01,15.7324306,0.0001934,53.2166,102.27,39.9259,181.1971,-0.00029513,-0.00041914,0.0,0 STARLINK-4283,1 53016U 22076AG  22244.58335648 -.00041914  00000-0 -29513-3 0  9992,2 53016  53.2166 102.2700 0001934  39.9259 181.1971 15.73243060  1309,6727.772,91.531,350.939,348.336,0.0
53016.0,STARLINK-4283,PAYLOAD,2022-09-01 20:00:01,15.73195812,0.000208,53.2165,101.0345,34.2976,163.5602,7.1103e-05,9.368e-05,0.0,0 STARLINK-4283,1 53016U 22076AG  22244.83335648  .00009368  00000-0  71103-4 0  9998,2 53016  53.2165 101.0345 0002080  34.2976 163.5602 15.73195812  9356,6727.906999999997,91.533,351.172,348.37300000000016,0.0
53016.0,STARLINK-4283,PAYLOAD,2022-09-01 22:00:00,15.73189697,0.0002129,53.2165,100.6226,33.4314,276.5932,0.00022558,0.00031143,0.0,0 STARLINK-4283,1 53016U 22076AG  22244.91667824  .00031143  00000-0  22558-3 0  9996,2 53016  53.2165 100.6226 0002129  33.4314 276.5932 15.73189697  1302,6727.925,91.534,351.222,348.357,0.0
53016.0,STARLINK-4283,PAYLOAD,2022-09-02 14:00:01,15.73181846,0.0001699999999999,53.2166,97.3217,31.9228,95.9782,0.00026139,0.00036194,0.0,0 STARLINK-4283,1 53016U 22076AG  22245.58334491  .00036194  00000-0  26139-3 0  9991,2 53016  53.2166  97.3217 0001700  31.9228  95.9782 15.73181846  1300,6727.946999999999,91.534,350.956,348.668,0.0
53016.0,STARLINK-4283,PAYLOAD,2022-09-02 22:00:01,15.7319317,0.0001976999999999,53.2167,95.6743,27.2948,189.5954,0.00028482,0.0003953,0.0,0 STARLINK-4283,1 53016U 22076AG  22245.91668981  .00039530  00000-0  28482-3 0  9992,2 53016  53.2167  95.6743 0001977  27.2948 189.5954 15.73193170  1303,6727.915,91.534,351.11,348.45,0.0
53016.0,STARLINK-4283,PAYLOAD,2022-09-03 04:00:00,15.73254053,0.0001976,53.2167,94.4368,27.4514,166.0632,-0.00044209,-0.00062356,0.0,0 STARLINK-4283,1 53016U 22076AG  22246.16667824 -.00062356  00000-0 -44209-3 0  9994,2 53016  53.2167  94.4368 0001976  27.4514 166.0632 15.73254053  9560,6727.741,91.53,350.935,348.277,0.0
53016.0,STARLINK-4283,PAYLOAD,2022-09-03 14:00:01,15.73200146,0.0001911,53.2174,92.3732,35.5746,359.158,0.00046752,0.00065509,0.0,0 STARLINK-4283,1 53016U 22076AG  22246.58334491  .00065509  00000-0  46752-3 0  9997,2 53016  53.2174  92.3732 0001911  35.5746 359.1580 15.73200146  9635,6727.895,91.533,351.045,348.474,0.0
53016.0,STARLINK-4283,PAYLOAD,2022-09-03 20:00:01,15.73262712,0.0002076,53.2172,91.1377,30.3112,341.1288,-0.00049563,-0.00069798,0.0,0 STARLINK-4283,1 53016U 22076AG  22246.83334491 -.00069798  00000-0 -49563-3 0  9994,2 53016  53.2172  91.1377 0002076  30.3112 341.1288 15.73262712  9675,6727.715999999999,91.53,350.978,348.185,0.0
53016.0,STARLINK-4283,PAYLOAD,2022-09-03 22:00:00,15.73245652,0.000212,53.2173,90.7258,29.1358,94.5537,-0.00033504,-0.00047474,0.0,0 STARLINK-4283,1 53016U 22076AG  22246.91667824 -.00047474  00000-0 -33504-3 0  9997,2 53016  53.2173  90.7258 0002120  29.1358  94.5537 15.73245652  1309,6727.765,91.531,351.056,348.204,0.0
53016.0,STARLINK-4283,PAYLOAD,2022-09-04 06:00:00,15.73236046,0.0001973,53.2174,89.0745,29.424,183.2196,-0.00014507,-0.00020963,0.0,0 STARLINK-4283,1 53016U 22076AG  22247.25001157 -.00020963  00000-0 -14507-3 0  9992,2 53016  53.2174  89.0745 0001973  29.4240 183.2196 15.73236046  9740,6727.792,91.531,350.985,348.33,0.0
53016.0,STARLINK-4283,PAYLOAD,2022-09-04 12:00:00,15.73405764,0.000177,53.2167,87.8264,38.3921,150.9551,-0.0034890999999999,-0.00468181,0.0,0 STARLINK-4283,1 53016U 22076AG  22247.50001157 -.00468181  00000-0 -34891-2 0  9995,2 53016  53.2167  87.8264 0001770  38.3921 150.9551 15.73405764  9778,6727.309,91.521,350.36400000000015,347.983,0.0
53016.0,STARLINK-4283,PAYLOAD,2022-09-04 14:00:01,15.73523378,0.0001728,53.217,87.4112,30.5037,271.1396,-0.006743,-0.008669,0.0,0 STARLINK-4283,1 53016U 22076AG  22247.58335648 -.00866900  00000-0 -67430-2 0  9994,2 53016  53.2170  87.4112 0001728  30.5037 271.1396 15.73523378  1301,6726.973000000001,91.514,350.001,347.676,0.0
